[{"OBJECT_NAME":"STARLINK-36604","OBJECT_ID":"2026-049A","EPOCH":"2026-04-07T14:54:58.640256","MEAN_MOTION":15.75203964,"ECCENTRICITY":0.0001281,"INCLINATION":97.2852,"RA_OF_ASC_NODE":118.3101,"ARG_OF_PERICENTER":60.0133,"MEAN_ANOMALY":300.1259,"EPHEMERIS_TYPE":0,"CLASSIFICATION_TYPE":"U","NORAD_CAT_ID":68142,"ELEMENT_SET_NO":999,"REV_AT_EPOCH":397,"BSTAR":0.00076027934,"MEAN_MOTION_DOT":0.00114877,"MEAN_MOTION_DDOT":0},{"OBJECT_NAME":"STARLINK-36995","OBJECT_ID":"2026-049B","EPOCH":"2026-04-07T11:45:22.928544","MEAN_MOTION":15.75348767,"ECCENTRICITY":7.419e-5,"INCLINATION":97.2853,"RA_OF_ASC_NODE":118.1827,"ARG_OF_PERICENTER":88.0154,"MEAN_ANOMALY":272.1196,"EPHEMERIS_TYPE":0,"CLASSIFICATION_TYPE":"U","NORAD_CAT_ID":68143,"ELEMENT_SET_NO":999,"REV_AT_EPOCH":395,"BSTAR":0.0013630365,"MEAN_MOTION_DOT":0.00209682,"MEAN_MOTION_DDOT":0},{"OBJECT_NAME":"STARLINK-37020","OBJECT_ID":"2026-049C","EPOCH":"2026-04-07T11:31:41.317248","MEAN_MOTION":15.75204995,"ECCENTRICITY":0.00011751,"INCLINATION":97.2852,"RA_OF_ASC_NODE":118.1964,"ARG_OF_PERICENTER":85.6216,"MEAN_ANOMALY":274.5184,"EPHEMERIS_TYPE":0,"CLASSIFICATION_TYPE":"U","NORAD_CAT_ID":68144,"ELEMENT_SET_NO":999,"REV_AT_EPOCH":395,"BSTAR":0.00088222306,"MEAN_MOTION_DOT":0.00133623,"MEAN_MOTION_DDOT":0},{"OBJECT_NAME":"STARLINK-36244","OBJECT_ID":"2026-049D","EPOCH":"2026-04-07T13:36:42.630912","MEAN_MOTION":15.75203785,"ECCENTRICITY":0.00015802,"INCLINATION":97.285,"RA_OF_ASC_NODE":118.2303,"ARG_OF_PERICENTER":86.4276,"MEAN_ANOMALY":273.717,"EPHEMERIS_TYPE":0,"CLASSIFICATION_TYPE":"U","NORAD_CAT_ID":68145,"ELEMENT_SET_NO":999,"REV_AT_EPOCH":396,"BSTAR":0.00079345586,"MEAN_MOTION_DOT":0.00119968,"MEAN_MOTION_DDOT":0},{"OBJECT_NAME":"STARLINK-36980","OBJECT_ID":"2026-049E","EPOCH":"2026-04-07T14:11:54.350592","MEAN_MOTION":15.80878202,"ECCENTRICITY":0.00015103,"INCLINATION":97.2846,"RA_OF_ASC_NODE":118.3518,"ARG_OF_PERICENTER":72.4455,"MEAN_ANOMALY":287.6978,"EPHEMERIS_TYPE":0,"CLASSIFICATION_TYPE":"U","NORAD_CAT_ID":68146,"ELEMENT_SET_NO":999,"REV_AT_EPOCH":397,"BSTAR":0.0010667324,"MEAN_MOTION_DOT":0.00209772,"MEAN_MOTION_DDOT":0},{"OBJECT_NAME":"STARLINK-37055","OBJECT_ID":"2026-049F","EPOCH":"2026-04-07T14:14:04.189920","MEAN_MOTION":15.80867603,"ECCENTRICITY":0.00011395,"INCLINATION":97.2846,"RA_OF_ASC_NODE":118.3493,"ARG_OF_PERICENTER":93.4556,"MEAN_ANOMALY":266.6843,"EPHEMERIS_TYPE":0,"CLASSIFICATION_TYPE":"U","NORAD_CAT_ID":68147,"ELEMENT_SET_NO":999,"REV_AT_EPOCH":397,"BSTAR":0.00093463886,"MEAN_MOTION_DOT":0.00183123,"MEAN_MOTION_DDOT":0},{"OBJECT_NAME":"STARLINK-36981","OBJECT_ID":"2026-049G","EPOCH":"2026-04-07T14:09:43.825248","MEAN_MOTION":15.80821948,"ECCENTRICITY":0.00011443,"INCLINATION":97.2845,"RA_OF_ASC_NODE":118.3531,"ARG_OF_PERICENTER":96.0596,"MEAN_ANOMALY":264.0803,"EPHEMERIS_TYPE":0,"CLASSIFICATION_TYPE":"U","NORAD_CAT_ID":68148,"ELEMENT_SET_NO":999,"REV_AT_EPOCH":397,"BSTAR":0.00019353654,"MEAN_MOTION_DOT":0.00037097,"MEAN_MOTION_DDOT":0},{"OBJECT_NAME":"STARLINK-36992","OBJECT_ID":"2026-049H","EPOCH":"2026-04-07T14:08:39.468480","MEAN_MOTION":15.80863129,"ECCENTRICITY":8.851e-5,"INCLINATION":97.2845,"RA_OF_ASC_NODE":118.3542,"ARG_OF_PERICENTER":97.8325,"MEAN_ANOMALY":262.3044,"EPHEMERIS_TYPE":0,"CLASSIFICATION_TYPE":"U","NORAD_CAT_ID":68149,"ELEMENT_SET_NO":999,"REV_AT_EPOCH":397,"BSTAR":0.00090189206,"MEAN_MOTION_DOT":0.00176531,"MEAN_MOTION_DDOT":0},{"OBJECT_NAME":"STARLINK-37060","OBJECT_ID":"2026-049J","EPOCH":"2026-04-07T14:00:01.999872","MEAN_MOTION":15.75230098,"ECCENTRICITY":0.00014447,"INCLINATION":97.285,"RA_OF_ASC_NODE":118.3403,"ARG_OF_PERICENTER":92.0956,"MEAN_ANOMALY":215.7953,"EPHEMERIS_TYPE":0,"CLASSIFICATION_TYPE":"U","NORAD_CAT_ID":68150,"ELEMENT_SET_NO":999,"REV_AT_EPOCH":526,"BSTAR":-0.00045863517,"MEAN_MOTION_DOT":-0.00068114,"MEAN_MOTION_DDOT":0},{"OBJECT_NAME":"STARLINK-37073","OBJECT_ID":"2026-049K","EPOCH":"2026-04-07T14:40:14.432160","MEAN_MOTION":15.75219814,"ECCENTRICITY":0.00015038,"INCLINATION":97.2854,"RA_OF_ASC_NODE":118.324,"ARG_OF_PERICENTER":66.14,"MEAN_ANOMALY":294.0023,"EPHEMERIS_TYPE":0,"CLASSIFICATION_TYPE":"U","NORAD_CAT_ID":68151,"ELEMENT_SET_NO":999,"REV_AT_EPOCH":397,"BSTAR":0.00099193391,"MEAN_MOTION_DOT":0.00150657,"MEAN_MOTION_DDOT":0},{"OBJECT_NAME":"STARLINK-37049","OBJECT_ID":"2026-049L","EPOCH":"2026-04-07T11:25:35.510880","MEAN_MOTION":15.75219985,"ECCENTRICITY":9.81e-5,"INCLINATION":97.2851,"RA_OF_ASC_NODE":118.2024,"ARG_OF_PERICENTER":60.1108,"MEAN_ANOMALY":300.0254,"EPHEMERIS_TYPE":0,"CLASSIFICATION_TYPE":"U","NORAD_CAT_ID":68152,"ELEMENT_SET_NO":999,"REV_AT_EPOCH":395,"BSTAR":0.0011771111,"MEAN_MOTION_DOT":0.00179413,"MEAN_MOTION_DDOT":0},{"OBJECT_NAME":"STARLINK-37072","OBJECT_ID":"2026-049M","EPOCH":"2026-04-07T14:45:19.234944","MEAN_MOTION":15.75229214,"ECCENTRICITY":0.00012832,"INCLINATION":97.2853,"RA_OF_ASC_NODE":118.3191,"ARG_OF_PERICENTER":51.6027,"MEAN_ANOMALY":308.5353,"EPHEMERIS_TYPE":0,"CLASSIFICATION_TYPE":"U","NORAD_CAT_ID":68153,"ELEMENT_SET_NO":999,"REV_AT_EPOCH":397,"BSTAR":0.0011638413,"MEAN_MOTION_DOT":0.00177418,"MEAN_MOTION_DDOT":0},{"OBJECT_NAME":"STARLINK-36241","OBJECT_ID":"2026-049N","EPOCH":"2026-04-07T13:31:07.128480","MEAN_MOTION":15.7520956,"ECCENTRICITY":0.0001247,"INCLINATION":97.2852,"RA_OF_ASC_NODE":118.2353,"ARG_OF_PERICENTER":85.2295,"MEAN_ANOMALY":274.9112,"EPHEMERIS_TYPE":0,"CLASSIFICATION_TYPE":"U","NORAD_CAT_ID":68154,"ELEMENT_SET_NO":999,"REV_AT_EPOCH":396,"BSTAR":0.00085451701,"MEAN_MOTION_DOT":0.00129384,"MEAN_MOTION_DDOT":0},{"OBJECT_NAME":"STARLINK-37048","OBJECT_ID":"2026-049P","EPOCH":"2026-04-07T14:00:00.207936","MEAN_MOTION":15.80857636,"ECCENTRICITY":0.00016384,"INCLINATION":97.2846,"RA_OF_ASC_NODE":118.3625,"ARG_OF_PERICENTER":120.9493,"MEAN_ANOMALY":239.1937,"EPHEMERIS_TYPE":0,"CLASSIFICATION_TYPE":"U","NORAD_CAT_ID":68155,"ELEMENT_SET_NO":999,"REV_AT_EPOCH":397,"BSTAR":0.00092447752,"MEAN_MOTION_DOT":0.00181007,"MEAN_MOTION_DDOT":0},{"OBJECT_NAME":"STARLINK-37064","OBJECT_ID":"2026-049R","EPOCH":"2026-04-07T14:03:14.861088","MEAN_MOTION":15.80889712,"ECCENTRICITY":0.00016536,"INCLINATION":97.2846,"RA_OF_ASC_NODE":118.3588,"ARG_OF_PERICENTER":123.6219,"MEAN_ANOMALY":236.5208,"EPHEMERIS_TYPE":0,"CLASSIFICATION_TYPE":"U","NORAD_CAT_ID":68157,"ELEMENT_SET_NO":999,"REV_AT_EPOCH":397,"BSTAR":0.0012585765,"MEAN_MOTION_DOT":0.00248773,"MEAN_MOTION_DDOT":0}]
