STARLINK-36604          
1 68142U 26049A   26097.62151204  .00114877  00000+0  76028-3 0  9990
2 68142  97.2852 118.3101 0001281  60.0133 300.1259 15.75203964  3977
STARLINK-36995          
1 68143U 26049B   26097.48984871  .00209682  00000+0  13630-2 0  9997
2 68143  97.2853 118.1827 0000741  88.0154 272.1196 15.75348767  3952
STARLINK-37020          
1 68144U 26049C   26097.48033932  .00133623  00000+0  88222-3 0  9992
2 68144  97.2852 118.1964 0001175  85.6216 274.5184 15.75204995  3955
STARLINK-36244          
1 68145U 26049D   26097.56716008  .00119968  00000+0  79346-3 0  9997
2 68145  97.2850 118.2303 0001580  86.4276 273.7170 15.75203785  3960
STARLINK-36980          
1 68146U 26049E   26097.59160128  .00209772  00000+0  10667-2 0  9990
2 68146  97.2846 118.3518 0001510  72.4455 287.6978 15.80878202  3971
STARLINK-37055          
1 68147U 26049F   26097.59310405  .00183123  00000+0  93464-3 0  9994
2 68147  97.2846 118.3493 0001139  93.4556 266.6843 15.80867603  3977
STARLINK-36981          
1 68148U 26049G   26097.59009057  .00037097  00000+0  19354-3 0  9997
2 68148  97.2845 118.3531 0001144  96.0596 264.0803 15.80821948  3979
STARLINK-36992          
1 68149U 26049H   26097.58934570  .00176531  00000+0  90189-3 0  9996
2 68149  97.2845 118.3542 0000885  97.8325 262.3044 15.80863129  3977
STARLINK-37060          
1 68150U 26049J   26097.58335648 -.00068114  00000+0 -45864-3 0  9998
2 68150  97.2850 118.3403 0001444  92.0956 215.7953 15.75230098  5262
STARLINK-37073          
1 68151U 26049K   26097.61127815  .00150657  00000+0  99193-3 0  9994
2 68151  97.2854 118.3240 0001503  66.1400 294.0023 15.75219814  3975
STARLINK-37049          
1 68152U 26049L   26097.47610545  .00179413  00000+0  11771-2 0  9992
2 68152  97.2851 118.2024 0000981  60.1108 300.0254 15.75219985  3951
STARLINK-37072          
1 68153U 26049M   26097.61480596  .00177418  00000+0  11638-2 0  9995
2 68153  97.2853 118.3191 0001283  51.6027 308.5353 15.75229214  3972
STARLINK-36241          
1 68154U 26049N   26097.56327695  .00129384  00000+0  85452-3 0  9995
2 68154  97.2852 118.2353 0001247  85.2295 274.9112 15.75209560  3961
STARLINK-37048          
1 68155U 26049P   26097.58333574  .00181007  00000+0  92448-3 0  9994
2 68155  97.2846 118.3625 0001638 120.9493 239.1937 15.80857636  3977
STARLINK-37064          
1 68157U 26049R   26097.58558867  .00248773  00000+0  12586-2 0  9998
2 68157  97.2846 118.3588 0001653 123.6219 236.5208 15.80889712  3972
